[
  {
    "COMMENT": "GENERATED VIA SPACETRACK.ORG API",
    "ORIGINATOR": "18 SPCS",
    "NORAD_CAT_ID": "39086",
    "OBJECT_NAME": "SARAL",
    "OBJECT_TYPE": "PAYLOAD",
    "CLASSIFICATION_TYPE": "U",
    "INTLDES": "13009A",
    "EPOCH": "2023-04-30 14:13:41",
    "EPOCH_MICROSECONDS": "436480",
    "MEAN_MOTION": "14.32182716",
    "ECCENTRICITY": "0.000297",
    "INCLINATION": "98.5485",
    "RA_OF_ASC_NODE": "306.5757",
    "ARG_OF_PERICENTER": "76.9312",
    "MEAN_ANOMALY": "283.2203",
    "EPHEMERIS_TYPE": "0",
    "ELEMENT_SET_NO": "999",
    "REV_AT_EPOCH": "53187",
    "BSTAR": "0.000077418",
    "MEAN_MOTION_DOT": "0.00000165",
    "MEAN_MOTION_DDOT": "0",
    "FILE": "3897442",
    "TLE_LINE0": "0 SARAL",
    "TLE_LINE1": "1 39086U 13009A   23120.59284070  .00000165  00000-0  77418-4 0  9995",
    "TLE_LINE2": "2 39086  98.5485 306.5757 0002970  76.9312 283.2203 14.32182716531875",
    "OBJECT_ID": "2013-009A",
    "OBJECT_NUMBER": "39086",
    "SEMIMAJOR_AXIS": "7162.581",
    "PERIOD": "100.546",
    "APOGEE": "786.573",
    "PERIGEE": "782.319",
    "DECAYED": "0"
  },
  {
    "COMMENT": "GENERATED VIA SPACETRACK.ORG API",
    "ORIGINATOR": "18 SPCS",
    "NORAD_CAT_ID": "39086",
    "OBJECT_NAME": "SARAL",
    "OBJECT_TYPE": "PAYLOAD",
    "CLASSIFICATION_TYPE": "U",
    "INTLDES": "13009A",
    "EPOCH": "2023-05-01 01:57:54",
    "EPOCH_MICROSECONDS": "871776",
    "MEAN_MOTION": "14.32182899",
    "ECCENTRICITY": "0.0002962",
    "INCLINATION": "98.5485",
    "RA_OF_ASC_NODE": "307.0576",
    "ARG_OF_PERICENTER": "76.0684",
    "MEAN_ANOMALY": "284.0829",
    "EPHEMERIS_TYPE": "0",
    "ELEMENT_SET_NO": "999",
    "REV_AT_EPOCH": "53194",
    "BSTAR": "0.000073568",
    "MEAN_MOTION_DOT": "0.00000155",
    "MEAN_MOTION_DDOT": "0",
    "FILE": "3897773",
    "TLE_LINE0": "0 SARAL",
    "TLE_LINE1": "1 39086U 13009A   23121.08188509  .00000155  00000-0  73568-4 0  9991",
    "TLE_LINE2": "2 39086  98.5485 307.0576 0002962  76.0684 284.0829 14.32182899531947",
    "OBJECT_ID": "2013-009A",
    "OBJECT_NUMBER": "39086",
    "SEMIMAJOR_AXIS": "7162.581",
    "PERIOD": "100.546",
    "APOGEE": "786.567",
    "PERIGEE": "782.324",
    "DECAYED": "0"
  },
  {
    "COMMENT": "GENERATED VIA SPACETRACK.ORG API",
    "ORIGINATOR": "18 SPCS",
    "NORAD_CAT_ID": "39086",
    "OBJECT_NAME": "SARAL",
    "OBJECT_TYPE": "PAYLOAD",
    "CLASSIFICATION_TYPE": "U",
    "INTLDES": "13009A",
    "EPOCH": "2023-05-01 13:42:08",
    "EPOCH_MICROSECONDS": "305344",
    "MEAN_MOTION": "14.32183104",
    "ECCENTRICITY": "0.0002956",
    "INCLINATION": "98.5485",
    "RA_OF_ASC_NODE": "307.5396",
    "ARG_OF_PERICENTER": "75.1449",
    "MEAN_ANOMALY": "285.0062",
    "EPHEMERIS_TYPE": "0",
    "ELEMENT_SET_NO": "999",
    "REV_AT_EPOCH": "53201",
    "BSTAR": "0.000075309",
    "MEAN_MOTION_DOT": "0.00000159",
    "MEAN_MOTION_DDOT": "0",
    "FILE": "3898258",
    "TLE_LINE0": "0 SARAL",
    "TLE_LINE1": "1 39086U 13009A   23121.57092946  .00000159  00000-0  75309-4 0  9993",
    "TLE_LINE2": "2 39086  98.5485 307.5396 0002956  75.1449 285.0062 14.32183104532013",
    "OBJECT_ID": "2013-009A",
    "OBJECT_NUMBER": "39086",
    "SEMIMAJOR_AXIS": "7162.580",
    "PERIOD": "100.546",
    "APOGEE": "786.562",
    "PERIGEE": "782.328",
    "DECAYED": "0"
  },
  {
    "COMMENT": "GENERATED VIA SPACETRACK.ORG API",
    "ORIGINATOR": "18 SPCS",
    "NORAD_CAT_ID": "39086",
    "OBJECT_NAME": "SARAL",
    "OBJECT_TYPE": "PAYLOAD",
    "CLASSIFICATION_TYPE": "U",
    "INTLDES": "13009A",
    "EPOCH": "2023-05-01 22:05:09",
    "EPOCH_MICROSECONDS": "323520",
    "MEAN_MOTION": "14.32183261",
    "ECCENTRICITY": "0.0002953",
    "INCLINATION": "98.5485",
    "RA_OF_ASC_NODE": "307.8838",
    "ARG_OF_PERICENTER": "74.5036",
    "MEAN_ANOMALY": "285.6473",
    "EPHEMERIS_TYPE": "0",
    "ELEMENT_SET_NO": "999",
    "REV_AT_EPOCH": "53206",
    "BSTAR": "0.000075592",
    "MEAN_MOTION_DOT": "0.0000016",
    "MEAN_MOTION_DDOT": "0",
    "FILE": "3898518",
    "TLE_LINE0": "0 SARAL",
    "TLE_LINE1": "1 39086U 13009A   23121.92024680  .00000160  00000-0  75592-4 0  9998",
    "TLE_LINE2": "2 39086  98.5485 307.8838 0002953  74.5036 285.6473 14.32183261532060",
    "OBJECT_ID": "2013-009A",
    "OBJECT_NUMBER": "39086",
    "SEMIMAJOR_AXIS": "7162.579",
    "PERIOD": "100.546",
    "APOGEE": "786.559",
    "PERIGEE": "782.329",
    "DECAYED": "0"
  },
  {
    "COMMENT": "GENERATED VIA SPACETRACK.ORG API",
    "ORIGINATOR": "18 SPCS",
    "NORAD_CAT_ID": "39086",
    "OBJECT_NAME": "SARAL",
    "OBJECT_TYPE": "PAYLOAD",
    "CLASSIFICATION_TYPE": "U",
    "INTLDES": "13009A",
    "EPOCH": "2023-05-02 04:47:34",
    "EPOCH_MICROSECONDS": "130976",
    "MEAN_MOTION": "14.32183456",
    "ECCENTRICITY": "0.0002945",
    "INCLINATION": "98.5484",
    "RA_OF_ASC_NODE": "308.1592",
    "ARG_OF_PERICENTER": "74.145",
    "MEAN_ANOMALY": "286.0058",
    "EPHEMERIS_TYPE": "0",
    "ELEMENT_SET_NO": "999",
    "REV_AT_EPOCH": "53210",
    "BSTAR": "0.000082296",
    "MEAN_MOTION_DOT": "0.00000178",
    "MEAN_MOTION_DDOT": "0",
    "FILE": "3898556",
    "TLE_LINE0": "0 SARAL",
    "TLE_LINE1": "1 39086U 13009A   23122.19970059  .00000178  00000-0  82296-4 0  9996",
    "TLE_LINE2": "2 39086  98.5484 308.1592 0002945  74.1450 286.0058 14.32183456532102",
    "OBJECT_ID": "2013-009A",
    "OBJECT_NUMBER": "39086",
    "SEMIMAJOR_AXIS": "7162.579",
    "PERIOD": "100.546",
    "APOGEE": "786.553",
    "PERIGEE": "782.334",
    "DECAYED": "0"
  },
  {
    "COMMENT": "GENERATED VIA SPACETRACK.ORG API",
    "ORIGINATOR": "18 SPCS",
    "NORAD_CAT_ID": "39086",
    "OBJECT_NAME": "SARAL",
    "OBJECT_TYPE": "PAYLOAD",
    "CLASSIFICATION_TYPE": "U",
    "INTLDES": "13009A",
    "EPOCH": "2023-05-02 13:10:35",
    "EPOCH_MICROSECONDS": "142240",
    "MEAN_MOTION": "14.32183602",
    "ECCENTRICITY": "0.0002936",
    "INCLINATION": "98.5484",
    "RA_OF_ASC_NODE": "308.5035",
    "ARG_OF_PERICENTER": "73.5379",
    "MEAN_ANOMALY": "286.6128",
    "EPHEMERIS_TYPE": "0",
    "ELEMENT_SET_NO": "999",
    "REV_AT_EPOCH": "53215",
    "BSTAR": "0.000081297",
    "MEAN_MOTION_DOT": "0.00000175",
    "MEAN_MOTION_DDOT": "0",
    "FILE": "3899068",
    "TLE_LINE0": "0 SARAL",
    "TLE_LINE1": "1 39086U 13009A   23122.54901785  .00000175  00000-0  81297-4 0  9992",
    "TLE_LINE2": "2 39086  98.5484 308.5035 0002936  73.5379 286.6128 14.32183602532153",
    "OBJECT_ID": "2013-009A",
    "OBJECT_NUMBER": "39086",
    "SEMIMAJOR_AXIS": "7162.578",
    "PERIOD": "100.546",
    "APOGEE": "786.546",
    "PERIGEE": "782.340",
    "DECAYED": "0"
  },
  {
    "COMMENT": "GENERATED VIA SPACETRACK.ORG API",
    "ORIGINATOR": "18 SPCS",
    "NORAD_CAT_ID": "39086",
    "OBJECT_NAME": "SARAL",
    "OBJECT_TYPE": "PAYLOAD",
    "CLASSIFICATION_TYPE": "U",
    "INTLDES": "13009A",
    "EPOCH": "2023-05-02 21:33:36",
    "EPOCH_MICROSECONDS": "151776",
    "MEAN_MOTION": "14.32183727",
    "ECCENTRICITY": "0.0002937",
    "INCLINATION": "98.5484",
    "RA_OF_ASC_NODE": "308.8477",
    "ARG_OF_PERICENTER": "72.8138",
    "MEAN_ANOMALY": "287.3367",
    "EPHEMERIS_TYPE": "0",
    "ELEMENT_SET_NO": "999",
    "REV_AT_EPOCH": "53220",
    "BSTAR": "0.000079012",
    "MEAN_MOTION_DOT": "0.00000169",
    "MEAN_MOTION_DDOT": "0",
    "FILE": "3899277",
    "TLE_LINE0": "0 SARAL",
    "TLE_LINE1": "1 39086U 13009A   23122.89833509  .00000169  00000-0  79012-4 0  9993",
    "TLE_LINE2": "2 39086  98.5484 308.8477 0002937  72.8138 287.3367 14.32183727532209",
    "OBJECT_ID": "2013-009A",
    "OBJECT_NUMBER": "39086",
    "SEMIMAJOR_AXIS": "7162.578",
    "PERIOD": "100.546",
    "APOGEE": "786.546",
    "PERIGEE": "782.339",
    "DECAYED": "0"
  },
  {
    "COMMENT": "GENERATED VIA SPACETRACK.ORG API",
    "ORIGINATOR": "18 SPCS",
    "NORAD_CAT_ID": "39086",
    "OBJECT_NAME": "SARAL",
    "OBJECT_TYPE": "PAYLOAD",
    "CLASSIFICATION_TYPE": "U",
    "INTLDES": "13009A",
    "EPOCH": "2023-05-03 10:58:25",
    "EPOCH_MICROSECONDS": "760640",
    "MEAN_MOTION": "14.32183967",
    "ECCENTRICITY": "0.0002921",
    "INCLINATION": "98.5483",
    "RA_OF_ASC_NODE": "309.3985",
    "ARG_OF_PERICENTER": "71.7382",
    "MEAN_ANOMALY": "288.412",
    "EPHEMERIS_TYPE": "0",
    "ELEMENT_SET_NO": "999",
    "REV_AT_EPOCH": "53228",
    "BSTAR": "0.000081226",
    "MEAN_MOTION_DOT": "0.00000175",
    "MEAN_MOTION_DDOT": "0",
    "FILE": "3899591",
    "TLE_LINE0": "0 SARAL",
    "TLE_LINE1": "1 39086U 13009A   23123.45724260  .00000175  00000-0  81226-4 0  9996",
    "TLE_LINE2": "2 39086  98.5483 309.3985 0002921  71.7382 288.4120 14.32183967532283",
    "OBJECT_ID": "2013-009A",
    "OBJECT_NUMBER": "39086",
    "SEMIMAJOR_AXIS": "7162.577",
    "PERIOD": "100.546",
    "APOGEE": "786.534",
    "PERIGEE": "782.350",
    "DECAYED": "0"
  },
  {
    "COMMENT": "GENERATED VIA SPACETRACK.ORG API",
    "ORIGINATOR": "18 SPCS",
    "NORAD_CAT_ID": "39086",
    "OBJECT_NAME": "SARAL",
    "OBJECT_TYPE": "PAYLOAD",
    "CLASSIFICATION_TYPE": "U",
    "INTLDES": "13009A",
    "EPOCH": "2023-05-03 12:39:01",
    "EPOCH_MICROSECONDS": "957536",
    "MEAN_MOTION": "14.32183984",
    "ECCENTRICITY": "0.000292",
    "INCLINATION": "98.5483",
    "RA_OF_ASC_NODE": "309.4673",
    "ARG_OF_PERICENTER": "71.5999",
    "MEAN_ANOMALY": "288.5502",
    "EPHEMERIS_TYPE": "0",
    "ELEMENT_SET_NO": "999",
    "REV_AT_EPOCH": "53229",
    "BSTAR": "0.000079592",
    "MEAN_MOTION_DOT": "0.00000171",
    "MEAN_MOTION_DDOT": "0",
    "FILE": "3899966",
    "TLE_LINE0": "0 SARAL",
    "TLE_LINE1": "1 39086U 13009A   23123.52710599  .00000171  00000-0  79592-4 0  9993",
    "TLE_LINE2": "2 39086  98.5483 309.4673 0002920  71.5999 288.5502 14.32183984532294",
    "OBJECT_ID": "2013-009A",
    "OBJECT_NUMBER": "39086",
    "SEMIMAJOR_AXIS": "7162.577",
    "PERIOD": "100.546",
    "APOGEE": "786.533",
    "PERIGEE": "782.350",
    "DECAYED": "0"
  }
]